{
  "type": "FeatureCollection",
  "features": [
    {
      "type": "Feature",
      "properties": {
        "id": "northern_territories",
        "label": "Northern Territories"
      },
      "geometry": {
        "type": "Polygon",
        "coordinates": [
          [
            [145.49909584078398, 44.10333640705523],
            [145.309990626169, 43.93960353197418],
            [145.27477460405956, 43.90763684131325],
            [145.2458299283532, 43.843651930357446],
            [145.25451333106508, 43.75416671026757],
            [145.26753843513296, 43.72593542217322],
            [145.31915644014268, 43.69036597593967],
            [145.39585983076452, 43.64744533572471],
            [145.43011103035042, 43.634528244054344],
            [145.53045257279925, 43.4982062190996],
            [145.68868346666073, 43.52339658187268],
            [145.7832360739682, 43.44078892392519],
            [145.81989932986295, 43.424323911962524],
            [145.84426109858248, 43.3691159502921],
            [145.87248215739618, 43.31140060208382],
            [145.89081378534354, 43.279098188429245],
            [145.9043213006732, 43.15957083431937],
            [145.92747704123832, 43.12366693983012],
            [146.09728580538228, 43.10887685499277],
            [147.33225863552082, 43.7451062659958],
            [147.07754548930473, 44.19229742385625],
            [147.49434881947647, 44.38843599630404],
            [148.25076967793635, 44.80613587321151],
            [149.20787362129363, 45.20995830536475],
            [149.19050681586984, 45.42570107691016],
            [149.10174314370363, 45.70803806159356],
            [148.75826632532136, 45.782101421649614],
            [147.8069513171053, 45.64601870041029],
            [146.34428037141004, 44.74038288743736],
            [145.95063278180336, 44.72119083140267],
            [145.6804824752106, 44.42703389311811],
            [145.56084448229092, 44.215121805772114],
            [145.56084448229092, 44.215121805772114],
            [145.49909584078398, 44.10333640705523]
          ]
        ]
      }
    },
    {
      "type": "Feature",
      "properties": {
        "id": "takeshima",
        "label": "Takeshima"
      },
      "geometry": {
        "type": "Polygon",
        "coordinates": [
          [
            [131.8282348633973, 37.26593865683557],
            [131.8282348633973, 37.21215681083642],
            [131.9075383340127, 37.21215681083642],
            [131.9075383340127, 37.26593865683557],
            [131.8282348633973, 37.26593865683557]
          ]
        ]
      }
    },
    {
      "type": "Feature",
      "properties": {
        "id": "senkaku",
        "label": "Senkaku Islands"
      },
      "geometry": {
        "type": "MultiPolygon",
        "coordinates": [
          [
            [
              [124.55425846128088, 25.92438519860697],
              [124.55425846128088, 25.91988896432767],
              [124.56198750316685, 25.91988896432767],
              [124.56198750316685, 25.92438519860697],
              [124.55425846128088, 25.92438519860697]
            ]
          ],
          [
            [
              [123.44283846613786, 25.776095961722064],
              [123.42754293304131, 25.73015068124262],
              [123.56998720549387, 25.705688733138928],
              [123.7072095041222, 25.92501249296525],
              [123.66887560891848, 25.945910083945236],
              [123.5368309378124, 25.752521330043407],
              [123.44283846613786, 25.776095961722064]
            ]
          ]
        ]
      }
    }
  ]
}
